GSAT0101 (GALILEO-PFM)  
1 37846U 11060A   26129.13386752 -.00000065  00000+0  00000+0 0  9991
2 37846  57.0080 342.8206 0003847  35.7476 324.3172  1.70475815 90457
GSAT0102 (GALILEO-FM2)  
1 37847U 11060B   26128.76247646 -.00000066  00000+0  00000+0 0  9999
2 37847  57.0069 342.8314 0004205   8.0852 169.6345  1.70476054 90453
GSAT0103 (GALILEO-FM3)  
1 38857U 12055A   26129.76087510  .00000056  00000+0  00000+0 0  9997
2 38857  55.7835 102.5990 0005769 297.7369  62.1840  1.70473477 84353
GSAT0201 (GALILEO 5)    
1 40128U 14050A   26130.14893984 -.00000041  00000+0  00000+0 0  9997
2 40128  48.9172 274.9945 1668714 177.9066 182.9069  1.85519992 77612
GSAT0202 (GALILEO 6)    
1 40129U 14050B   26129.32664630 -.00000038  00000+0  00000+0 0  9996
2 40129  48.9359 274.1129 1669655 178.6026 181.9474  1.85520652 79767
GSAT0203 (GALILEO 7)    
1 40544U 15017A   26127.73865925 -.00000070  00000+0  00000+0 0  9990
2 40544  56.8003 342.6985 0001957 310.6217  49.3991  1.70476070 68517
GSAT0204 (GALILEO 8)    
1 40545U 15017B   26129.16749796 -.00000065  00000+0  00000+0 0  9991
2 40545  56.8056 342.6781 0002052 283.6505  76.3653  1.70475765 31588
GSAT0205 (GALILEO 9)    
1 40889U 15045A   26115.63255192 -.00000038  00000+0  00000+0 0  9992
2 40889  54.9613 223.1764 0005159 266.9978  92.9342  1.67410754 66085
GSAT0206 (GALILEO 10)   
1 40890U 15045B   26129.15616383  .00000007  00000+0  00000+0 0  9994
2 40890  54.9564 222.6823 0001810  28.5071 331.5417  1.70474061 66370
GSAT0209 (GALILEO 12)   
1 41174U 15079A   26128.15093923  .00000047  00000+0  00000+0 0  9999
2 41174  55.8037 102.3590 0005648 331.2911  28.6518  1.70474110 64094
GSAT0208 (GALILEO 11)   
1 41175U 15079B   26129.54439476  .00000054  00000+0  00000+0 0  9999
2 41175  55.8030 102.3177 0004993 332.7595  27.1929  1.70473953 64538
GSAT0211 (GALILEO 14)   
1 41549U 16030A   26127.90873862  .00000007  00000+0  00000+0 0  9999
2 41549  55.1070 222.8027 0002541 347.1907  12.8437  1.70474234 61980
GSAT0210 (GALILEO 13)   
1 41550U 16030B   26129.33917435  .00000007  00000+0  00000+0 0  9995
2 41550  55.1067 222.7614 0002032 176.4636 183.5762  1.70474197 62005
GSAT0207 (GALILEO 15)   
1 41859U 16069A   26129.61736481  .00000053  00000+0  00000+0 0  9991
2 41859  55.4752 102.1526 0005864 320.6044  39.3316  1.70473931 58740
GSAT0212 (GALILEO 16)   
1 41860U 16069B   26128.88424573  .00000050  00000+0  00000+0 0  9994
2 41860  55.4727 102.1679 0004704 343.9510  16.0107  1.70474213 58981
GSAT0213 (GALILEO 17)   
1 41861U 16069C   26125.14546651  .00000030  00000+0  00000+0 0  9991
2 41861  55.4725 102.2790 0005790 303.9672  55.9420  1.70474575 58785
GSAT0214 (GALILEO 18)   
1 41862U 16069D   26128.22453356  .00000046  00000+0  00000+0 0  9990
2 41862  55.4730 102.1867 0004813 310.2812  49.6511  1.70474277 58968
GSAT0215 (GALILEO 19)   
1 43055U 17079A   26129.30120246  .00000007  00000+0  00000+0 0  9994
2 43055  55.0850 222.5767 0001242 260.9196  99.1051  1.70474855 52323
GSAT0216 (GALILEO 20)   
1 43056U 17079B   26129.59237581  .00000007  00000+0  00000+0 0  9997
2 43056  55.0843 222.5688 0001692 287.2096  72.8101  1.70474972 52344
GSAT0217 (GALILEO 21)   
1 43057U 17079C   26128.63999956  .00000007  00000+0  00000+0 0  9993
2 43057  55.0833 222.5928 0002376 301.0777  58.9390  1.70474909 52314
GSAT0218 (GALILEO 22)   
1 43058U 17079D   26130.03321889  .00000007  00000+0  00000+0 0  9995
2 43058  55.0826 222.5521 0004625 273.0099  86.9747  1.70474723 52366
GSAT0221 (GALILEO 25)   
1 43564U 18060A   26129.93701904 -.00000062  00000+0  00000+0 0  9997
2 43564  57.1809 342.8137 0004311 308.7683  51.2333  1.70475907 48511
GSAT0222 (GALILEO 26)   
1 43565U 18060B   26128.39689268 -.00000067  00000+0  00000+0 0  9990
2 43565  57.1851 342.8588 0002059 282.1812  77.8343  1.70475651 48538
GSAT0219 (GALILEO 23)   
1 43566U 18060C   26129.79101278 -.00000062  00000+0  00000+0 0  9991
2 43566  57.1839 342.8226 0003067 333.7463  26.2781  1.70475821 48532
GSAT0220 (GALILEO 24)   
1 43567U 18060D   26128.25223942 -.00000067  00000+0  00000+0 0  9990
2 43567  57.1844 342.8649 0002984 337.9579  22.0678  1.70475935 48499
GSAT0223 (GALILEO 27)   
1 49809U 21116A   26130.16020334 -.00000061  00000+0  00000+0 0  9998
2 49809  57.1734 342.7031 0000533 231.0982 310.7142  1.70476006 27531
GSAT0224 (GALILEO 28)   
1 49810U 21116B   26130.55681229 -.00000060  00000+0  00000+0 0  9998
2 49810  57.1740 342.6912 0000330  90.9525  86.8835  1.70475996 27567
GSAT0225 (GALILEO 29)   
1 59598U 24079A   26126.75511000  .00000038  00000+0  00000+0 0  9993
2 59598  55.0938 102.2370 0002595 280.8273  77.0035  1.70474540 12607
GSAT0227 (GALILEO 30)   
1 59600U 24079C   26129.28835198  .00000051  00000+0  00000+0 0  9990
2 59600  55.0912 102.1647 0001430  22.1779 337.8063  1.70474347 12708
GSAT0232 (GALILEO 32)   
1 61182U 24167A   26130.10412977  .00000007  00000+0  00000+0 0  9996
2 61182  55.1961 222.3588 0005186 217.4724 138.7010  1.70474674 10229
GSAT0226 (GALILEO 31)   
1 61183U 24167B   26129.37367709  .00000007  00000+0  00000+0 0  9996
2 61183  55.1952 222.3860 0002061 204.4446 154.7726  1.70474572 10183
